[{"OBJECT_NAME":"STARLINK-34545","OBJECT_ID":"2025-167AD","EPOCH":"2026-03-09T07:12:22.357728","MEAN_MOTION":15.30141572,"ECCENTRICITY":0.00010135,"INCLINATION":53.1607,"RA_OF_ASC_NODE":28.2176,"ARG_OF_PERICENTER":74.9849,"MEAN_ANOMALY":285.1264,"EPHEMERIS_TYPE":0,"CLASSIFICATION_TYPE":"U","NORAD_CAT_ID":65105,"ELEMENT_SET_NO":999,"REV_AT_EPOCH":3342,"BSTAR":0.00092650801,"MEAN_MOTION_DOT":0.00027132,"MEAN_MOTION_DDOT":0},{"OBJECT_NAME":"TRANSPORTER-1 OBJECT AA","OBJECT_ID":"2021-006AA","EPOCH":"2026-03-09T22:58:14.761920","MEAN_MOTION":15.29982294,"ECCENTRICITY":0.00086604,"INCLINATION":97.2381,"RA_OF_ASC_NODE":112.457,"ARG_OF_PERICENTER":185.709,"MEAN_ANOMALY":174.4054,"EPHEMERIS_TYPE":0,"CLASSIFICATION_TYPE":"U","NORAD_CAT_ID":47437,"ELEMENT_SET_NO":999,"REV_AT_EPOCH":28414,"BSTAR":0.0002197941,"MEAN_MOTION_DOT":6.312e-5,"MEAN_MOTION_DDOT":0}]
